SL-16 R/B               
1 28353U 04021B   16078.13156396  .00000127  00000-0  91426-4 0  9990
2 28353  71.0007 314.8688 0005485 193.2353 166.8626 14.14168207607680
CZ-2C R/B               
1 28480U 04046B   16079.23333921  .00000089  00000-0  48515-4 0  9999
2 28480  98.1703 199.1374 0143191 127.1165 317.0279 14.25579957589418
ARIANE 5 R/B            
1 28499U 04049H   16079.16510888  .00000259  00000-0  39792-4 0  9999
2 28499  98.1170 152.5408 0091522 243.6156 146.1602 14.79655898606702
CZ-2D R/B               
1 28738U 05024B   16078.52343143  .00001921  00000-0  12081-3 0  9994
2 28738  97.5533 116.9120 0013788 126.8767 233.3728 15.10351598587013
SUZAKU (ASTRO-EII)      
1 28773U 05025A   16078.85183006  .00003184  00000-0  16426-3 0  9990
2 28773  31.3843   6.3911 0004524 103.2905 256.8246 15.14479730588236
ALOS (DAICHI)           
1 28931U 06002A   16079.56964131  .00000540  00000-0  11612-3 0  9992
2 28931  97.8961 122.3773 0001032  45.4896 314.6390 14.62149897541021
H-2A R/B                
1 28932U 06002B   16079.52333635  .00001426  00000-0  14060-3 0  9992
2 28932  98.2236 338.1312 0091217   1.4959 119.4058 14.90758899550058
AKARI (ASTRO-F)         
1 28939U 06005A   16079.02700222  .00007030  00000-0  23947-3 0  9998
2 28939  98.2265 226.6275 0116393 321.1185  38.1719 15.24445346543660
RESURS-DK 1             
1 29228U 06021A   16079.52345693  .00000778  00000-0  66963-4 0  9998
2 29228  69.9367 174.5840 0006820 295.9348  64.1088 15.01835368539835
GENESIS 1               
1 29252U 06029A   16079.17271234  .00001895  00000-0  10769-3 0  9996
2 29252  64.5079 330.5489 0038683 237.0395 246.0786 15.15767289532848
CZ-4B R/B               
1 29507U 06046C   16079.55318890  .00001939  00000-0  16023-3 0  9998
2 29507  97.7869  80.8415 0037563   0.7483 359.3790 14.99630598512898
CZ-2C R/B               
1 31114U 07010B   16078.76054661  .00000042  00000-0  38649-4 0  9995
2 31114  98.4155 358.3021 0060949  97.1189 263.6924 14.19194870462928
COSMO-SKYMED 1          
1 31598U 07023A   16079.49160887  .00000593  00000-0  80987-4 0  9997
2 31598  97.8769 264.3123 0001286  82.3771 277.7593 14.82165861475097
GENESIS 2               
1 31789U 07028A   16079.36931607  .00002361  00000-0  13237-3 0  9994
2 31789  64.5074   6.2649 0052424 278.6917  80.8268 15.15031638479971
COSMOS 2428             
1 31792U 07029A   16079.36300976  .00000137  00000-0  10000-3 0  9992
2 31792  70.9498 286.5976 0009411 251.7452 159.5569 14.12415936449851
SL-16 R/B               
1 31793U 07029B   16078.55127523  .00000055  00000-0  53523-4 0  9995
2 31793  70.9746 266.2087 0001900 267.6483 151.2769 14.14360790450291
KORONAS-FOTON           
1 33504U 09003A   16079.28322261  .00001931  00000-0  10391-3 0  9997
2 33504  82.4445 324.8066 0018369 239.3387 120.6035 15.14154114392621
TIANGONG 1              
1 37820U 11053A   16079.20632897  .00014767  00000-0  18033-3 0  9993
2 37820  42.7643  64.4941 0011320 149.1841 272.4319 15.60169419256510
CUSAT 2 & FALCON 9 R/B  
1 39271U 13055G   16079.14514412  .00011537  00000-0  30898-3 0  9999
2 39271  80.9690 115.8571 0666357 101.2573 266.4207 14.29376881127428
